<q:quakeml xmlns="http://quakeml.org/xmlns/bed/1.2" xmlns:catalog="http://anss.org/xmlns/catalog/0.1" xmlns:q="http://quakeml.org/xmlns/quakeml/1.2" xmlns:anss="http://anss.org/xmlns/event/0.1"><eventParameters publicID="quakeml:www.data.scec.org/ws/event/query?eventid=15481673/139607009540"><event publicID="quakeml:www.data.scec.org/ws/event/query?Eventid=15481673" catalog:datasource="ci" catalog:dataid="ci15481673" catalog:eventsource="ci" catalog:eventid="15481673"><amplitude publicID="quakeml:www.data.scec.org/ws/event/query?Ampid=698852825"><genericAmplitude><value>0.168307075500488</value></genericAmplitude><type>AL</type><category>point</category><unit>m</unit><waveformID networkCode="AZ" stationCode="BZN" channelCode="HHE" locationCode="--"></waveformID><magnitudeHint>ML</magnitudeHint><evaluationMode>automatic</evaluationMode><evaluationStatus>preliminary</evaluationStatus></amplitude><amplitude publicID="quakeml:www.data.scec.org/ws/event/query?Ampid=698852833"><genericAmplitude><value>0.182831573486328</value></genericAmplitude><type>AL</type><category>point</category><unit>m</unit><waveformID networkCode="AZ" stationCode="BZN" channelCode="HHN" locationCode="--"></waveformID><magnitudeHint>ML</magnitudeHint><evaluationMode>automatic</evaluationMode><evaluationStatus>preliminary</evaluationStatus></amplitude><amplitude publicID="quakeml:www.data.scec.org/ws/event/query?Ampid=698852841"><genericAmplitude><value>1.32330337524414</value></genericAmplitude><type>AL</type><category>point</category><unit>m</unit><waveformID networkCode="AZ" stationCode="BZN" channelCode="HNE" locationCode="--"></waveformID><magnitudeHint>ML</magnitudeHint><evaluationMode>automatic</evaluationMode><evaluationStatus>preliminary</evaluationStatus></amplitude><amplitude publicID="quakeml:www.data.scec.org/ws/event/query?Ampid=698852849"><genericAmplitude><value>1.45099197387695</value></genericAmplitude><type>AL</type><category>point</category><unit>m</unit><waveformID networkCode="AZ" stationCode="BZN" channelCode="HNN" locationCode="--"></waveformID><magnitudeHint>ML</magnitudeHint><evaluationMode>automatic</evaluationMode><evaluationStatus>preliminary</evaluationStatus></amplitude><amplitude publicID="quakeml:www.data.scec.org/ws/event/query?Ampid=698852857"><genericAmplitude><value>0.150748147964478</value></genericAmplitude><type>AL</type><category>point</category><unit>m</unit><waveformID networkCode="AZ" stationCode="CPE" channelCode="HHE" locationCode="--"></waveformID><magnitudeHint>ML</magnitudeHint><evaluationMode>automatic</evaluationMode><evaluationStatus>preliminary</evaluationStatus></amplitude><amplitude publicID="quakeml:www.data.scec.org/ws/event/query?Ampid=698852865"><genericAmplitude><value>0.114294881820679</value></genericAmplitude><type>AL</type><category>point</category><unit>m</unit><waveformID networkCode="AZ" stationCode="CPE" channelCode="HHN" locationCode="--"></waveformID><magnitudeHint>ML</magnitudeHint><evaluationMode>automatic</evaluationMode><evaluationStatus>preliminary</evaluationStatus></amplitude><amplitude publicID="quakeml:www.data.scec.org/ws/event/query?Ampid=698852873"><genericAmplitude><value>0.149844207763672</value></genericAmplitude><type>AL</type><category>point</category><unit>m</unit><waveformID networkCode="AZ" stationCode="CPE" channelCode="HNE" locationCode="--"></waveformID><magnitudeHint>ML</magnitudeHint><evaluationMode>automatic</evaluationMode><evaluationStatus>preliminary</evaluationStatus></amplitude><amplitude publicID="quakeml:www.data.scec.org/ws/event/query?Ampid=698852881"><genericAmplitude><value>0.11277907371521</value></genericAmplitude><type>AL</type><category>point</category><unit>m</unit><waveformID networkCode="AZ" stationCode="CPE" channelCode="HNN" locationCode="--"></waveformID><magnitudeHint>ML</magnitudeHint><evaluationMode>automatic</evaluationMode><evaluationStatus>preliminary</evaluationStatus></amplitude><amplitude publicID="quakeml:www.data.scec.org/ws/event/query?Ampid=698852889"><genericAmplitude><value>0.0821634578704834</value></genericAmplitude><type>AL</type><category>point</category><unit>m</unit><waveformID networkCode="AZ" stationCode="CRY" channelCode="HHE" locationCode="--"></waveformID><magnitudeHint>ML</magnitudeHint><evaluationMode>automatic</evaluationMode><evaluationStatus>preliminary</evaluationStatus></amplitude><amplitude publicID="quakeml:www.data.scec.org/ws/event/query?Ampid=698852897"><genericAmplitude><value>0.0959662342071533</value></genericAmplitude><type>AL</type><category>point</category><unit>m</unit><pickID>quakeml:www.data.scec.org/ws/event/query?arid=230972077</pickID><waveformID networkCode="AZ" stationCode="CRY" channelCode="HHN" locationCode="--"></waveformID><magnitudeHint>ML</magnitudeHint><evaluationMode>automatic</evaluationMode><evaluationStatus>preliminary</evaluationStatus></amplitude><amplitude publicID="quakeml:www.data.scec.org/ws/event/query?Ampid=698852905"><genericAmplitude><value>0.0822174549102783</value></genericAmplitude><type>AL</type><category>point</category><unit>m</unit><waveformID networkCode="AZ" stationCode="CRY" channelCode="HNE" locationCode="--"></waveformID><magnitudeHint>ML</magnitudeHint><evaluationMode>automatic</evaluationMode><evaluationStatus>preliminary</evaluationStatus></amplitude><amplitude publicID="quakeml:www.data.scec.org/ws/event/query?Ampid=698852913"><genericAmplitude><value>0.0960308837890625</value></genericAmplitude><type>AL</type><category>point</category><unit>m</unit><waveformID networkCode="AZ" stationCode="CRY" channelCode="HNN" locationCode="--"></waveformID><magnitudeHint>ML</magnitudeHint><evaluationMode>automatic</evaluationMode><evaluationStatus>preliminary</evaluationStatus></amplitude><amplitude publicID="quakeml:www.data.scec.org/ws/event/query?Ampid=698852921"><genericAmplitude><value>0.073909592628479</value></genericAmplitude><type>AL</type><category>point</category><unit>m</unit><waveformID networkCode="AZ" stationCode="FRD" channelCode="HHE" locationCode="--"></waveformID><magnitudeHint>ML</magnitudeHint><evaluationMode>automatic</evaluationMode><evaluationStatus>preliminary</evaluationStatus></amplitude><amplitude publicID="quakeml:www.data.scec.org/ws/event/query?Ampid=698852929"><genericAmplitude><value>0.110941982269287</value></genericAmplitude><type>AL</type><category>point</category><unit>m</unit><waveformID networkCode="AZ" stationCode="FRD" channelCode="HHN" locationCode="--"></waveformID><magnitudeHint>ML</magnitudeHint><evaluationMode>automatic</evaluationMode><evaluationStatus>preliminary</evaluationStatus></amplitude><amplitude publicID="quakeml:www.data.scec.org/ws/event/query?Ampid=698852937"><genericAmplitude><value>0.0732845687866211</value></genericAmplitude><type>AL</type><category>point</category><unit>m</unit><waveformID networkCode="AZ" stationCode="FRD" channelCode="HNE" locationCode="--"></waveformID><magnitudeHint>ML</magnitudeHint><evaluationMode>automatic</evaluationMode><evaluationStatus>preliminary</evaluationStatus></amplitude><amplitude publicID="quakeml:www.data.scec.org/ws/event/query?Ampid=698852945"><genericAmplitude><value>0.0633964395523071</value></genericAmplitude><type>AL</type><category>point</category><unit>m</unit><waveformID networkCode="AZ" stationCode="HWB" channelCode="HHE" locationCode="--"></waveformID><magnitudeHint>ML</magnitudeHint><evaluationMode>automatic</evaluationMode><evaluationStatus>preliminary</evaluationStatus></amplitude><amplitude publicID="quakeml:www.data.scec.org/ws/event/query?Ampid=698852953"><genericAmplitude><value>0.0661698532104492</value></genericAmplitude><type>AL</type><category>point</category><unit>m</unit><waveformID networkCode="AZ" stationCode="HWB" channelCode="HHN" locationCode="--"></waveformID><magnitudeHint>ML</magnitudeHint><evaluationMode>automatic</evaluationMode><evaluationStatus>preliminary</evaluationStatus></amplitude><amplitude publicID="quakeml:www.data.scec.org/ws/event/query?Ampid=698852961"><genericAmplitude><value>0.274651050567627</value></genericAmplitude><type>AL</type><category>point</category><unit>m</unit><waveformID networkCode="AZ" stationCode="HWB" channelCode="HNE" locationCode="--"></waveformID><magnitudeHint>ML</magnitudeHint><evaluationMode>automatic</evaluationMode><evaluationStatus>preliminary</evaluationStatus></amplitude><amplitude publicID="quakeml:www.data.scec.org/ws/event/query?Ampid=698852969"><genericAmplitude><value>0.335292282104492</value></genericAmplitude><type>AL</type><category>point</category><unit>m</unit><waveformID networkCode="AZ" stationCode="HWB" channelCode="HNN" locationCode="--"></waveformID><magnitudeHint>ML</magnitudeHint><evaluationMode>automatic</evaluationMode><evaluationStatus>preliminary</evaluationStatus></amplitude><amplitude publicID="quakeml:www.data.scec.org/ws/event/query?Ampid=698852977"><genericAmplitude><value>0.0488024520874023</value></genericAmplitude><type>AL</type><category>point</category><unit>m</unit><waveformID networkCode="AZ" stationCode="KNW" channelCode="HHE" locationCode="--"></waveformID><magnitudeHint>ML</magnitudeHint><evaluationMode>automatic</evaluationMode><evaluationStatus>preliminary</evaluationStatus></amplitude><amplitude publicID="quakeml:www.data.scec.org/ws/event/query?Ampid=698852985"><genericAmplitude><value>0.0908304786682129</value></genericAmplitude><type>AL</type><category>point</category><unit>m</unit><pickID>quakeml:www.data.scec.org/ws/event/query?arid=230972053</pickID><waveformID networkCode="AZ" stationCode="KNW" channelCode="HHN" locationCode="--"></waveformID><magnitudeHint>ML</magnitudeHint><evaluationMode>automatic</evaluationMode><evaluationStatus>preliminary</evaluationStatus></amplitude><amplitude publicID="quakeml:www.data.scec.org/ws/event/query?Ampid=698852993"><genericAmplitude><value>0.0477168226242065</value></genericAmplitude><type>AL</type><category>point</category><unit>m</unit><waveformID networkCode="AZ" stationCode="KNW" channelCode="HNE" locationCode="--"></waveformID><magnitudeHint>ML</magnitudeHint><evaluationMode>automatic</evaluationMode><evaluationStatus>preliminary</evaluationStatus></amplitude><amplitude publicID="quakeml:www.data.scec.org/ws/event/query?Ampid=698853001"><genericAmplitude><value>0.090210599899292</value></genericAmplitude><type>AL</type><category>point</category><unit>m</unit><waveformID networkCode="AZ" stationCode="KNW" channelCode="HNN" locationCode="--"></waveformID><magnitudeHint>ML</magnitudeHint><evaluationMode>automatic</evaluationMode><evaluationStatus>preliminary</evaluationStatus></amplitude><amplitude publicID="quakeml:www.data.scec.org/ws/event/query?Ampid=698853009"><genericAmplitude><value>0.261694488525391</value></genericAmplitude><type>AL</type><category>point</category><unit>m</unit><waveformID networkCode="AZ" stationCode="LVA2" channelCode="HHE" locationCode="--"></waveformID><magnitudeHint>ML</magnitudeHint><evaluationMode>automatic</evaluationMode><evaluationStatus>preliminary</evaluationStatus></amplitude><amplitude publicID="quakeml:www.data.scec.org/ws/event/query?Ampid=698853017"><genericAmplitude><value>0.13242654800415</value></genericAmplitude><type>AL</type><category>point</category><unit>m</unit><waveformID networkCode="AZ" stationCode="LVA2" channelCode="HHN" locationCode="--"></waveformID><magnitudeHint>ML</magnitudeHint><evaluationMode>automatic</evaluationMode><evaluationStatus>preliminary</evaluationStatus></amplitude><amplitude publicID="quakeml:www.data.scec.org/ws/event/query?Ampid=698853025"><genericAmplitude><value>0.261501865386963</value></genericAmplitude><type>AL</type><category>point</category><unit>m</unit><waveformID networkCode="AZ" stationCode="LVA2" channelCode="HNE" locationCode="--"></waveformID><magnitudeHint>ML</magnitudeHint><evaluationMode>automatic</evaluationMode><evaluationStatus>preliminary</evaluationStatus></amplitude><amplitude publicID="quakeml:www.data.scec.org/ws/event/query?Ampid=698853033"><genericAmplitude><value>0.133131666183472</value></genericAmplitude><type>AL</type><category>point</category><unit>m</unit><waveformID networkCode="AZ" stationCode="LVA2" channelCode="HNN" locationCode="--"></waveformID><magnitudeHint>ML</magnitudeHint><evaluationMode>automatic</evaluationMode><evaluationStatus>preliminary</evaluationStatus></amplitude><amplitude publicID="quakeml:www.data.scec.org/ws/event/query?Ampid=698853041"><genericAmplitude><value>0.120840930938721</value></genericAmplitude><type>AL</type><category>point</category><unit>m</unit><waveformID networkCode="AZ" stationCode="MONP2" channelCode="HHE" locationCode="--"></waveformID><magnitudeHint>ML</magnitudeHint><evaluationMode>automatic</evaluationMode><evaluationStatus>preliminary</evaluationStatus></amplitude><amplitude publicID="quakeml:www.data.scec.org/ws/event/query?Ampid=698853049"><genericAmplitude><value>0.107585754394531</value></genericAmplitude><type>AL</type><category>point</category><unit>m</unit><waveformID networkCode="AZ" stationCode="MONP2" channelCode="HHN" locationCode="--"></waveformID><magnitudeHint>ML</magnitudeHint><evaluationMode>automatic</evaluationMode><evaluationStatus>preliminary</evaluationStatus></amplitude><amplitude publicID="quakeml:www.data.scec.org/ws/event/query?Ampid=698853081"><genericAmplitude><value>0.0432712888717651</value></genericAmplitude><type>AL</type><category>point</category><unit>m</unit><waveformID networkCode="AZ" stationCode="PFO" channelCode="HHE" locationCode="--"></waveformID><magnitudeHint>ML</magnitudeHint><evaluationMode>automatic</evaluationMode><evaluationStatus>preliminary</evaluationStatus></amplitude><amplitude publicID="quakeml:www.data.scec.org/ws/event/query?Ampid=698853089"><genericAmplitude><value>0.0619516229629517</value></genericAmplitude><type>AL</type><category>point</category><unit>m</unit><waveformID networkCode="AZ" stationCode="PFO" channelCode="HHN" locationCode="--"></waveformID><magnitudeHint>ML</magnitudeHint><evaluationMode>automatic</evaluationMode><evaluationStatus>preliminary</evaluationStatus></amplitude><amplitude publicID="quakeml:www.data.scec.org/ws/event/query?Ampid=698853097"><genericAmplitude><value>0.0433143424987793</value></genericAmplitude><type>AL</type><category>point</category><unit>m</unit><waveformID networkCode="AZ" stationCode="PFO" channelCode="HNE" locationCode="--"></waveformID><magnitudeHint>ML</magnitudeHint><evaluationMode>automatic</evaluationMode><evaluationStatus>preliminary</evaluationStatus></amplitude><amplitude publicID="quakeml:www.data.scec.org/ws/event/query?Ampid=698853105"><genericAmplitude><value>0.0933219337463379</value></genericAmplitude><type>AL</type><category>point</category><unit>m</unit><waveformID networkCode="AZ" stationCode="RDM" channelCode="HHE" locationCode="--"></waveformID><magnitudeHint>ML</magnitudeHint><evaluationMode>automatic</evaluationMode><evaluationStatus>preliminary</evaluationStatus></amplitude><amplitude publicID="quakeml:www.data.scec.org/ws/event/query?Ampid=698853113"><genericAmplitude><value>0.0920882034301758</value></genericAmplitude><type>AL</type><category>point</category><unit>m</unit><pickID>quakeml:www.data.scec.org/ws/event/query?arid=230971933</pickID><waveformID networkCode="AZ" stationCode="RDM" channelCode="HHN" locationCode="--"></waveformID><magnitudeHint>ML</magnitudeHint><evaluationMode>automatic</evaluationMode><evaluationStatus>preliminary</evaluationStatus></amplitude><amplitude publicID="quakeml:www.data.scec.org/ws/event/query?Ampid=698853121"><genericAmplitude><value>0.0920046806335449</value></genericAmplitude><type>AL</type><category>point</category><unit>m</unit><waveformID networkCode="AZ" stationCode="RDM" channelCode="HNE" locationCode="--"></waveformID><magnitudeHint>ML</magnitudeHint><evaluationMode>automatic</evaluationMode><evaluationStatus>preliminary</evaluationStatus></amplitude><amplitude publicID="quakeml:www.data.scec.org/ws/event/query?Ampid=698853129"><genericAmplitude><value>0.0912595748901367</value></genericAmplitude><type>AL</type><category>point</category><unit>m</unit><waveformID networkCode="AZ" stationCode="RDM" channelCode="HNN" locationCode="--"></waveformID><magnitudeHint>ML</magnitudeHint><evaluationMode>automatic</evaluationMode><evaluationStatus>preliminary</evaluationStatus></amplitude><amplitude publicID="quakeml:www.data.scec.org/ws/event/query?Ampid=698853137"><genericAmplitude><value>0.184264736175537</value></genericAmplitude><type>AL</type><category>point</category><unit>m</unit><waveformID networkCode="AZ" stationCode="SCI2" channelCode="HNE" locationCode="--"></waveformID><magnitudeHint>ML</magnitudeHint><evaluationMode>automatic</evaluationMode><evaluationStatus>preliminary</evaluationStatus></amplitude><amplitude publicID="quakeml:www.data.scec.org/ws/event/query?Ampid=698853145"><genericAmplitude><value>0.184426746368408</value></genericAmplitude><type>AL</type><category>point</category><unit>m</unit><waveformID networkCode="AZ" stationCode="SCI2" channelCode="HNN" locationCode="--"></waveformID><magnitudeHint>ML</magnitudeHint><evaluationMode>automatic</evaluationMode><evaluationStatus>preliminary</evaluationStatus></amplitude><amplitude publicID="quakeml:www.data.scec.org/ws/event/query?Ampid=698853153"><genericAmplitude><value>0.103608512878418</value></genericAmplitude><type>AL</type><category>point</category><unit>m</unit><waveformID networkCode="AZ" stationCode="SMER" channelCode="HHE" locationCode="--"></waveformID><magnitudeHint>ML</magnitudeHint><evaluationMode>automatic</evaluationMode><evaluationStatus>preliminary</evaluationStatus></amplitude><amplitude publicID="quakeml:www.data.scec.org/ws/event/query?Ampid=698853161"><genericAmplitude><value>0.149563608169556</value></genericAmplitude><type>AL</type><category>point</category><unit>m</unit><waveformID networkCode="AZ" stationCode="SMER" channelCode="HHN" locationCode="--"></waveformID><magnitudeHint>ML</magnitudeHint><evaluationMode>automatic</evaluationMode><evaluationStatus>preliminary</evaluationStatus></amplitude><amplitude publicID="quakeml:www.data.scec.org/ws/event/query?Ampid=698853169"><genericAmplitude><value>0.210998268127441</value></genericAmplitude><type>AL</type><category>point</category><unit>m</unit><waveformID networkCode="AZ" stationCode="SND" channelCode="HHE" locationCode="--"></waveformID><magnitudeHint>ML</magnitudeHint><evaluationMode>automatic</evaluationMode><evaluationStatus>preliminary</evaluationStatus></amplitude><amplitude publicID="quakeml:www.data.scec.org/ws/event/query?Ampid=698853177"><genericAmplitude><value>0.225881500244141</value></genericAmplitude><type>AL</type><category>point</category><unit>m</unit><waveformID networkCode="AZ" stationCode="SND" channelCode="HHN" locationCode="--"></waveformID><magnitudeHint>ML</magnitudeHint><evaluationMode>automatic</evaluationMode><evaluationStatus>preliminary</evaluationStatus></amplitude><amplitude publicID="quakeml:www.data.scec.org/ws/event/query?Ampid=698853185"><genericAmplitude><value>0.206620750427246</value></genericAmplitude><type>AL</type><category>point</category><unit>m</unit><waveformID networkCode="AZ" stationCode="SND" channelCode="HNE" locationCode="--"></waveformID><magnitudeHint>ML</magnitudeHint><evaluationMode>automatic</evaluationMode><evaluationStatus>preliminary</evaluationStatus></amplitude><amplitude publicID="quakeml:www.data.scec.org/ws/event/query?Ampid=698853193"><genericAmplitude><value>0.225944957733154</value></genericAmplitude><type>AL</type><category>point</category><unit>m</unit><waveformID networkCode="AZ" stationCode="SND" channelCode="HNN" locationCode="--"></waveformID><magnitudeHint>ML</magnitudeHint><evaluationMode>automatic</evaluationMode><evaluationStatus>preliminary</evaluationStatus></amplitude><amplitude publicID="quakeml:www.data.scec.org/ws/event/query?Ampid=698853201"><genericAmplitude><value>0.193119659423828</value></genericAmplitude><type>AL</type><category>point</category><