<?xml version="1.0" encoding="UTF-8" standalone="no" ?>
<q:quakeml xmlns:q="http://quakeml.org/xmlns/quakeml/1.2" xmlns="http://quakeml.org/xmlns/bed/1.2" xmlns:catalog="http://anss.org/xmlns/catalog/0.1" xmlns:tensor="http://anss.org/xmlns/tensor/0.1">

  <eventParameters xmlns="http://quakeml.org/xmlns/bed/1.2" publicID="quakeml:us.anss.org/eventparameters/c000p11f/1396469942">
    <comment>
      <text>HYDRA - us</text>
    </comment>
    <event catalog:dataid="usc000p11f" catalog:datasource="us" catalog:eventid="c000p11f" catalog:eventsource="us" publicID="quakeml:us.anss.org/event/c000p11f">
      <description>
        <text>SOUTH OF PANAMA</text>
        <type>Flinn-Engdahl region</type>
      </description>
      <description>
        <text>52 km (32 miles) S of Pedregal, Panama (pop 16285)
58 km (36 miles) S of David, Panama (pop 82859)
59 km (36 miles) S of Las Lomas, Panama (pop 11726)
70 km (43 miles) SE of Puerto Armuelles, Panama (pop 18795)
294 km (182 miles) SE of San Jose, Costa Rica (pop 335007)
</text>
        <type>nearest cities</type>
      </description>
      <focalMechanism catalog:dataid="us_c000p11f_mww" catalog:datasource="us" publicID="quakeml:us.anss.org/focalmechanism/c000p11f/mww">
        <momentTensor publicID="quakeml:us.anss.org/momenttensor/c000p11f/mww">
          <derivedOriginID>quakeml:us.anss.org/origin/c000p11f/mww</derivedOriginID>
          <momentMagnitudeID>quakeml:us.anss.org/magnitude/c000p11f/mww</momentMagnitudeID>
          <scalarMoment>
            <value>1.08e+018</value>
          </scalarMoment>
          <tensor>
            <Mrr>
              <value>3.4e+016</value>
            </Mrr>
            <Mtt>
              <value>-3.16e+017</value>
            </Mtt>
            <Mpp>
              <value>2.82e+017</value>
            </Mpp>
            <Mrt>
              <value>-1.3e+017</value>
            </Mrt>
            <Mrp>
              <value>-1.94e+017</value>
            </Mrp>
            <Mtp>
              <value>1.007e+018</value>
            </Mtp>
          </tensor>
          <doubleCouple>0.9675</doubleCouple>
          <clvd>0.0325</clvd>
        </momentTensor>
        <triggeringOriginID>quakeml:us.anss.org/origin/c000p11f</triggeringOriginID>
        <nodalPlanes>
          <nodalPlane1>
            <strike>
              <value>171</value>
            </strike>
            <dip>
              <value>82</value>
            </dip>
            <rake>
              <value>171</value>
            </rake>
          </nodalPlane1>
          <nodalPlane2>
            <strike>
              <value>262</value>
            </strike>
            <dip>
              <value>81</value>
            </dip>
            <rake>
              <value>8</value>
            </rake>
          </nodalPlane2>
        </nodalPlanes>
        <principalAxes>
          <tAxis>
            <azimuth>
              <value>127</value>
            </azimuth>
            <plunge>
              <value>13</value>
            </plunge>
            <length>
              <value>1.0852e+018</value>
            </length>
          </tAxis>
          <pAxis>
            <azimuth>
              <value>217</value>
            </azimuth>
            <plunge>
              <value>1</value>
            </plunge>
            <length>
              <value>-1.06758e+018</value>
            </length>
          </pAxis>
          <nAxis>
            <azimuth>
              <value>310</value>
            </azimuth>
            <plunge>
              <value>77</value>
            </plunge>
            <length>
              <value>-1.76194e+016</value>
            </length>
          </nAxis>
        </principalAxes>
        <evaluationMode>manual</evaluationMode>
        <evaluationStatus>confirmed</evaluationStatus>
        <creationInfo>
          <agencyID>us</agencyID>
          <agencyURI>smi:anss.org/metadata/agencyid/us</agencyURI>
          <creationTime>2014-04-02T18:32:34Z</creationTime>
        </creationInfo>
        <tensor:waveformFit xmlns="">0.00</tensor:waveformFit>
      </focalMechanism>
      <focalMechanism catalog:dataid="us_c000p11f_mwb" catalog:datasource="us" publicID="quakeml:us.anss.org/focalmechanism/c000p11f/mwb">
        <waveformID channelCode="LHZ" locationCode="00" networkCode="US" stationCode="AHID" tensor:MTChanOffset="1" tensor:MTChanWaveformFit="0.58" tensor:MTChanWeight="1"/>
        <waveformID channelCode="LHZ" locationCode="00" networkCode="US" stationCode="BW06" tensor:MTChanOffset="0" tensor:MTChanWaveformFit="0.93" tensor:MTChanWeight="1"/>
        <waveformID channelCode="BHZ" locationCode="00" networkCode="IU" stationCode="COLA" tensor:MTChanOffset="1" tensor:MTChanWaveformFit="0.87" tensor:MTChanWeight="1"/>
        <waveformID channelCode="BHZ" locationCode="00" networkCode="II" stationCode="BORG" tensor:MTChanOffset="1" tensor:MTChanWaveformFit="0.8" tensor:MTChanWeight="1"/>
        <waveformID channelCode="BHZ" locationCode="--" networkCode="CN" stationCode="INK" tensor:MTChanOffset="0" tensor:MTChanWaveformFit="0.91" tensor:MTChanWeight="1"/>
        <waveformID channelCode="LHZ" locationCode="00" networkCode="II" stationCode="KDAK" tensor:MTChanOffset="1" tensor:MTChanWaveformFit="0.94" tensor:MTChanWeight="1"/>
        <waveformID channelCode="BHZ" locationCode="10" networkCode="IU" stationCode="KBS" tensor:MTChanOffset="1" tensor:MTChanWaveformFit="0.92" tensor:MTChanWeight="1"/>
        <waveformID channelCode="BHZ" locationCode="00" networkCode="II" stationCode="FFC" tensor:MTChanOffset="1" tensor:MTChanWaveformFit="0.86" tensor:MTChanWeight="1"/>
        <waveformID channelCode="BHZ" locationCode="00" networkCode="IU" stationCode="KEV" tensor:MTChanOffset="2" tensor:MTChanWaveformFit="0.85" tensor:MTChanWeight="1"/>
        <waveformID channelCode="BHZ" locationCode="00" networkCode="IU" stationCode="KONO" tensor:MTChanOffset="0" tensor:MTChanWaveformFit="0.66" tensor:MTChanWeight="1"/>
        <waveformID channelCode="BHZ" locationCode="--" networkCode="GE" stationCode="DSB" tensor:MTChanOffset="-1" tensor:MTChanWaveformFit="0.83" tensor:MTChanWeight="1"/>
        <waveformID channelCode="LHZ" locationCode="00" networkCode="US" stationCode="HWUT" tensor:MTChanOffset="0" tensor:MTChanWaveformFit="0.94" tensor:MTChanWeight="1"/>
        <waveformID channelCode="BHZ" locationCode="--" networkCode="GE" stationCode="MORC" tensor:MTChanOffset="0" tensor:MTChanWaveformFit="0.8" tensor:MTChanWeight="1"/>
        <waveformID channelCode="BHZ" locationCode="00" networkCode="II" stationCode="ESK" tensor:MTChanOffset="1" tensor:MTChanWaveformFit="0.73" tensor:MTChanWeight="1"/>
        <waveformID channelCode="BHZ" locationCode="00" networkCode="GT" stationCode="DBIC" tensor:MTChanOffset="1" tensor:MTChanWaveformFit="0.96" tensor:MTChanWeight="1"/>
        <waveformID channelCode="BHZ" locationCode="--" networkCode="GT" stationCode="BDFB" tensor:MTChanOffset="2" tensor:MTChanWaveformFit="0.94" tensor:MTChanWeight="1"/>
        <waveformID channelCode="BHZ" locationCode="--" networkCode="GE" stationCode="PSZ" tensor:MTChanOffset="2" tensor:MTChanWaveformFit="0.75" tensor:MTChanWeight="1"/>
        <waveformID channelCode="BHZ" locationCode="10" networkCode="IU" stationCode="RCBR" tensor:MTChanOffset="2" tensor:MTChanWaveformFit="0.8" tensor:MTChanWeight="1"/>
        <waveformID channelCode="BHZ" locationCode="--" networkCode="GE" stationCode="SUMG" tensor:MTChanOffset="2" tensor:MTChanWaveformFit="0.82" tensor:MTChanWeight="1"/>
        <waveformID channelCode="BHZ" locationCode="--" networkCode="GE" stationCode="WLF" tensor:MTChanOffset="1" tensor:MTChanWaveformFit="0.79" tensor:MTChanWeight="1"/>
        <waveformID channelCode="BH2" locationCode="00" networkCode="IU" stationCode="ADK" tensor:MTChanOffset="-2" tensor:MTChanWaveformFit="0.81" tensor:MTChanWeight="0.19245"/>
        <waveformID channelCode="BHZ" locationCode="00" networkCode="IU" stationCode="ADK" tensor:MTChanOffset="3" tensor:MTChanWaveformFit="0.85" tensor:MTChanWeight="1"/>
        <waveformID channelCode="BHZ" locationCode="00" networkCode="IU" stationCode="ANMO" tensor:MTChanOffset="1" tensor:MTChanWaveformFit="0.91" tensor:MTChanWeight="1"/>
        <waveformID channelCode="BH2" locationCode="00" networkCode="II" stationCode="ASCN" tensor:MTChanOffset="-4" tensor:MTChanWaveformFit="0.61" tensor:MTChanWeight="0.19245"/>
        <waveformID channelCode="BHZ" locationCode="10" networkCode="II" stationCode="ASCN" tensor:MTChanOffset="1" tensor:MTChanWaveformFit="0.79" tensor:MTChanWeight="1"/>
        <waveformID channelCode="BHZ" locationCode="00" networkCode="II" stationCode="CMLA" tensor:MTChanOffset="0" tensor:MTChanWaveformFit="0.93" tensor:MTChanWeight="1"/>
        <waveformID channelCode="BH2" locationCode="00" networkCode="IU" stationCode="COLA" tensor:MTChanOffset="-2" tensor:MTChanWaveformFit="0.86" tensor:MTChanWeight="0.19245"/>
        <waveformID channelCode="BHZ" locationCode="00" networkCode="II" stationCode="EFI" tensor:MTChanOffset="-4" tensor:MTChanWaveformFit="0.56" tensor:MTChanWeight="1"/>
        <waveformID channelCode="BH2" locationCode="00" networkCode="II" stationCode="EFI" tensor:MTChanOffset="2" tensor:MTChanWaveformFit="0.89" tensor:MTChanWeight="0.19245"/>
        <waveformID channelCode="BH2" locationCode="10" networkCode="II" stationCode="FFC" tensor:MTChanOffset="0" tensor:MTChanWaveformFit="0.92" tensor:MTChanWeight="0.19245"/>
        <waveformID channelCode="BH2" locationCode="10" networkCode="II" stationCode="KDAK" tensor:MTChanOffset="-4" tensor:MTChanWaveformFit="0.9" tensor:MTChanWeight="0.19245"/>
        <waveformID channelCode="BHE" locationCode="--" networkCode="AT" stationCode="PMR" tensor:MTChanOffset="-3" tensor:MTChanWaveformFit="0.82" tensor:MTChanWeight="0.19245"/>
        <waveformID channelCode="BHZ" locationCode="--" networkCode="AT" stationCode="PMR" tensor:MTChanOffset="0" tensor:MTChanWaveformFit="0.91" tensor:MTChanWeight="1"/>
        <waveformID channelCode="BHZ" locationCode="00" networkCode="II" stationCode="RPN" tensor:MTChanOffset="-6" tensor:MTChanWaveformFit="0.14" tensor:MTChanWeight="1"/>
        <waveformID channelCode="BHZ" locationCode="00" networkCode="II" stationCode="SHEL" tensor:MTChanOffset="0" tensor:MTChanWaveformFit="0.9" tensor:MTChanWeight="1"/>
        <waveformID channelCode="BHZ" locationCode="--" networkCode="AT" stationCode="SIT" tensor:MTChanOffset="0" tensor:MTChanWaveformFit="0.8" tensor:MTChanWeight="1"/>
        <waveformID channelCode="LHZ" locationCode="00" networkCode="US" stationCode="DGMT" tensor:MTChanOffset="2" tensor:MTChanWaveformFit="0.94" tensor:MTChanWeight="1"/>
        <waveformID channelCode="LHZ" locationCode="00" networkCode="US" stationCode="ISCO" tensor:MTChanOffset="0" tensor:MTChanWaveformFit="0.95" tensor:MTChanWeight="1"/>
        <waveformID channelCode="LHZ" locationCode="00" networkCode="US" stationCode="DUG" tensor:MTChanOffset="0" tensor:MTChanWaveformFit="0.94" tensor:MTChanWeight="1"/>
        <waveformID channelCode="LH2" locationCode="00" networkCode="US" stationCode="HAWA" tensor:MTChanOffset="-4" tensor:MTChanWaveformFit="0.92" tensor:MTChanWeight="0.19245"/>
        <waveformID channelCode="LHZ" locationCode="00" networkCode="US" stationCode="HAWA" tensor:MTChanOffset="1" tensor:MTChanWaveformFit="0.83" tensor:MTChanWeight="1"/>
        <waveformID channelCode="LHZ" locationCode="00" networkCode="US" stationCode="JFWS" tensor:MTChanOffset="3" tensor:MTChanWaveformFit="0.98" tensor:MTChanWeight="1"/>
        <waveformID channelCode="LH2" locationCode="00" networkCode="US" stationCode="MSO" tensor:MTChanOffset="-4" tensor:MTChanWaveformFit="0.85" tensor:MTChanWeight="0.19245"/>
        <waveformID channelCode="LHZ" locationCode="00" networkCode="US" stationCode="MSO" tensor:MTChanOffset="0" tensor:MTChanWaveformFit="0.88" tensor:MTChanWeight="1"/>
        <waveformID channelCode="LH2" locationCode="00" networkCode="US" stationCode="NEW" tensor:MTChanOffset="-3" tensor:MTChanWaveformFit="0.9" tensor:MTChanWeight="0.19245"/>
        <waveformID channelCode="LHZ" locationCode="00" networkCode="US" stationCode="NEW" tensor:MTChanOffset="0" tensor:MTChanWaveformFit="0.83" tensor:MTChanWeight="1"/>
        <waveformID channelCode="LHZ" locationCode="00" networkCode="US" stationCode="TPNV" tensor:MTChanOffset="-1" tensor:MTChanWaveformFit="0.9" tensor:MTChanWeight="1"/>
        <waveformID channelCode="LHZ" locationCode="00" networkCode="US" stationCode="WMOK" tensor:MTChanOffset="2" tensor:MTChanWaveformFit="0.94" tensor:MTChanWeight="1"/>
        <waveformID channelCode="LHZ" locationCode="00" networkCode="US" stationCode="WUAZ" tensor:MTChanOffset="1" tensor:MTChanWaveformFit="0.95" tensor:MTChanWeight="1"/>
        <waveformID channelCode="LHZ" locationCode="00" networkCode="US" stationCode="WVOR" tensor:MTChanOffset="0" tensor:MTChanWaveformFit="0.92" tensor:MTChanWeight="1"/>
        <waveformID channelCode="LHZ" locationCode="00" networkCode="US" stationCode="CBKS" tensor:MTChanOffset="2" tensor:MTChanWaveformFit="0.9" tensor:MTChanWeight="1"/>
        <waveformID channelCode="LHZ" locationCode="00" networkCode="US" stationCode="CBN" tensor:MTChanOffset="1" tensor:MTChanWaveformFit="0.95" tensor:MTChanWeight="1"/>
        <waveformID channelCode="LHZ" locationCode="00" networkCode="US" stationCode="KSU1" tensor:MTChanOffset="2" tensor:MTChanWaveformFit="0.89" tensor:MTChanWeight="1"/>
        <waveformID channelCode="LHZ" locationCode="00" networkCode="US" stationCode="MNTX" tensor:MTChanOffset="2" tensor:MTChanWaveformFit="0.91" tensor:MTChanWeight="1"/>
        <waveformID channelCode="LHZ" locationCode="00" networkCode="US" stationCode="SDCO" tensor:MTChanOffset="0" tensor:MTChanWaveformFit="0.95" tensor:MTChanWeight="1"/>
        <waveformID channelCode="LHZ" locationCode="00" networkCode="US" stationCode="LAO" tensor:MTChanOffset="2" tensor:MTChanWaveformFit="0.95" tensor:MTChanWeight="1"/>
        <waveformID channelCode="LHZ" locationCode="00" networkCode="US" stationCode="LBNH" tensor:MTChanOffset="0" tensor:MTChanWaveformFit="0.93" tensor:MTChanWeight="1"/>
        <waveformID channelCode="BHE" locationCode="00" networkCode="GT" stationCode="CPUP" tensor:MTChanOffset="5" tensor:MTChanWaveformFit="0.39" tensor:MTChanWeight="0.19245"/>
        <waveformID channelCode="BHZ" locationCode="00" networkCode="GT" stationCode="CPUP" tensor:MTChanOffset="0" tensor:MTChanWaveformFit="0.77" tensor:MTChanWeight="1"/>
        <momentTensor publicID="quakeml:us.anss.org/momenttensor/c000p11f/mwb">
          <derivedOriginID>quakeml:us.anss.org/origin/c000p11f/mwb</derivedOriginID>
          <momentMagnitudeID>quakeml:us.anss.org/magnitude/c000p11f/mwb</momentMagnitudeID>
          <scalarMoment>
            <value>7.99e+017</value>
          </scalarMoment>
          <tensor>
            <Mrr>
              <value>-2.6427e+017</value>
            </Mrr>
            <Mtt>
              <value>-1.9204e+017</value>
            </Mtt>
            <Mpp>
              <value>4.5631e+017</value>
            </Mpp>
            <Mrt>
              <value>-6.416e+016</value>
            </Mrt>
            <Mrp>
              <value>1.5261e+017</value>
            </Mrp>
            <Mtp>
              <value>6.7382e+017</value>
            </Mtp>
          </tensor>
          <doubleCouple>0.4923</doubleCouple>
          <clvd>0.5077</clvd>
        </momentTensor>
        <triggeringOriginID>quakeml:us.anss.org/origin/c000p11f</triggeringOriginID>
        <nodalPlanes>
          <nodalPlane1>
            <strike>
              <value>75.99</value>
            </strike>
            <dip>
              <value>73.16</value>
            </dip>
            <rake>
              <value>-10.36</value>
            </rake>
          </nodalPlane1>
          <nodalPlane2>
            <strike>
              <value>169.02</value>
            </strike>
            <dip>
              <value>80.09</value>
            </dip>
            <rake>
              <value>-162.9</value>
            </rake>
          </nodalPlane2>
        </nodalPlanes>
        <principalAxes>
          <tAxis>
            <azimuth>
              <value>302</value>
            </azimuth>
            <plunge>
              <value>5</value>
            </plunge>
            <length>
              <value>8.87807e+017</value>
            </length>
          </tAxis>
          <pAxis>
            <azimuth>
              <value>33</value>
            </azimuth>
            <plunge>
              <value>19</value>
            </plunge>
            <length>
              <value>-6.62437e+017</value>
            </length>
          </pAxis>
          <nAxis>
            <azimuth>
              <value>198</value>
            </azimuth>
            <plunge>
              <value>70</value>
            </plunge>
            <length>
              <value>-2.25371e+017</value>
            </length>
          </nAxis>
        </principalAxes>
        <evaluationMode>manual</evaluationMode>
        <evaluationStatus>confirmed</evaluationStatus>
        <creationInfo>
          <agencyID>us</agencyID>
          <agencyURI>smi:anss.org/metadata/agencyid/us</agencyURI>
          <creationTime>2014-04-02T19:47:29Z</creationTime>
        </creationInfo>
        <tensor:waveformFit xmlns="">0.82</tensor:waveformFit>
      </focalMechanism>
      <focalMechanism catalog:dataid="us_c000p11f_mwc_gcmt" catalog:datasource="us" publicID="quakeml:us.anss.org/focalmechanism/gcmt_c000p11f/mwc">
        <momentTensor publicID="quakeml:us.anss.org/momenttensor/gcmt_c000p11f/mwc">
          <derivedOriginID>quakeml:us.anss.org/origin/gcmt_c000p11f/mwc</derivedOriginID>
          <momentMagnitudeID>quakeml:us.anss.org/magnitude/gcmt_c000p11f/mwc</momentMagnitudeID>
          <scalarMoment>
            <value>1.2e+018</value>
          </scalarMoment>
          <tensor>
            <Mrr>
              <value>-1.07e+017</value>
            </Mrr>
            <Mtt>
              <value>-4.39e+017</value>
            </Mtt>
            <Mpp>
              <value>5.46e+017</value>
            </Mpp>
            <Mrt>
              <value>-1.56e+017</value>
            </Mrt>
            <Mrp>
              <value>2.62e+017</value>
            </Mrp>
            <Mtp>
              <value>1.05e+018</value>
            </Mtp>
          </tensor>
          <doubleCouple>0.9158</doubleCouple>
          <clvd>0.0842</clvd>
        </momentTensor>
        <triggeringOriginID>quakeml:us.anss.org/origin/c000p11f</triggeringOriginID>
        <nodalPlanes>
          <nodalPlane1>
            <strike>
              <value>168</value>
            </strike>
            <dip>
              <value>84</value>
            </dip>
            <rake>
              <value>-165</value>
            </rake>
          </nodalPlane1>
          <nodalPlane2>
            <strike>
              <value>77</value>
            </strike>
            <dip>
              <value>76</value>
            </dip>
            <rake>
              <value>-6</value>
            </rake>
          </nodalPlane2>
        </nodalPlanes>
        <principalAxes>
          <tAxis>
            <azimuth>
              <value>302</value>
            </azimuth>
            <plunge>
              <value>6</value>
            </plunge>
            <length>
              <value>1.22777e+018</value>
            </length>
          </tAxis>
          <pAxis>
            <azimuth>
              <value>33</value>
            </azimuth>
            <plunge>
              <value>14</value>
            </plunge>
            <length>
              <value>-1.17608e+018</value>
            </length>
          </pAxis>
          <nAxis>
            <azimuth>
              <value>190</value>
            </azimuth>
            <plunge>
              <value>74</value>
            </plunge>
            <length>
