<q:quakeml xmlns="http://quakeml.org/xmlns/bed/1.2" xmlns:catalog="http://anss.org/xmlns/catalog/0.1" xmlns:anss="http://anss.org/xmlns/event/0.1" xmlns:q="http://quakeml.org/xmlns/quakeml/1.2"><eventParameters publicID="quakeml:nc.anss.org/catalog/NC/1/139447293268"><event publicID="quakeml:nc.anss.org/Event/NC/72182046" catalog:datasource="nc" catalog:dataid="nc72182046" catalog:eventsource="nc" catalog:eventid="72182046"><amplitude publicID="quakeml:nc.anss.org/Coda/NC/77539594"><genericAmplitude><value>203.5763</value></genericAmplitude><type>END</type><category>duration</category><unit>s</unit><timeWindow><begin>0.0</begin><end>2</end><reference>2014-03-10T05:18:55.420Z</reference></timeWindow><pickID>quakeml:nc.anss.org/Arrival/NC/95129049</pickID><waveformID networkCode="BG" stationCode="ACR" channelCode="DPZ" locationCode="--"></waveformID><magnitudeHint>MD</magnitudeHint><evaluationMode>automatic</evaluationMode><evaluationStatus>preliminary</evaluationStatus></amplitude><amplitude publicID="quakeml:nc.anss.org/Coda/NC/77539489"><genericAmplitude><value>296.2162</value></genericAmplitude><type>END</type><category>duration</category><unit>s</unit><timeWindow><begin>0.0</begin><end>2</end><reference>2014-03-10T05:18:53.760Z</reference></timeWindow><pickID>quakeml:nc.anss.org/Arrival/NC/95128944</pickID><waveformID networkCode="BG" stationCode="AL1" channelCode="DPZ" locationCode="--"></waveformID><magnitudeHint>MD</magnitudeHint><evaluationMode>automatic</evaluationMode><evaluationStatus>preliminary</evaluationStatus></amplitude><amplitude publicID="quakeml:nc.anss.org/Coda/NC/77539509"><genericAmplitude><value>584.0492</value></genericAmplitude><type>END</type><category>duration</category><unit>s</unit><timeWindow><begin>0.0</begin><end>2</end><reference>2014-03-10T05:18:53.800Z</reference></timeWindow><pickID>quakeml:nc.anss.org/Arrival/NC/95128964</pickID><waveformID networkCode="BG" stationCode="AL2" channelCode="DPZ" locationCode="--"></waveformID><magnitudeHint>MD</magnitudeHint><evaluationMode>automatic</evaluationMode><evaluationStatus>preliminary</evaluationStatus></amplitude><amplitude publicID="quakeml:nc.anss.org/Coda/NC/77539524"><genericAmplitude><value>411.2746</value></genericAmplitude><type>END</type><category>duration</category><unit>s</unit><timeWindow><begin>0.0</begin><end>2</end><reference>2014-03-10T05:18:54.250Z</reference></timeWindow><pickID>quakeml:nc.anss.org/Arrival/NC/95128979</pickID><waveformID networkCode="BG" stationCode="AL3" channelCode="DPZ" locationCode="--"></waveformID><magnitudeHint>MD</magnitudeHint><evaluationMode>automatic</evaluationMode><evaluationStatus>preliminary</evaluationStatus></amplitude><amplitude publicID="quakeml:nc.anss.org/Coda/NC/77539529"><genericAmplitude><value>308.9376</value></genericAmplitude><type>END</type><category>duration</category><unit>s</unit><timeWindow><begin>0.0</begin><end>2</end><reference>2014-03-10T05:18:54.430Z</reference></timeWindow><pickID>quakeml:nc.anss.org/Arrival/NC/95128984</pickID><waveformID networkCode="BG" stationCode="AL4" channelCode="DPZ" locationCode="--"></waveformID><magnitudeHint>MD</magnitudeHint><evaluationMode>automatic</evaluationMode><evaluationStatus>preliminary</evaluationStatus></amplitude><amplitude publicID="quakeml:nc.anss.org/Coda/NC/77539494"><genericAmplitude><value>330.8195</value></genericAmplitude><type>END</type><category>duration</category><unit>s</unit><timeWindow><begin>0.0</begin><end>2</end><reference>2014-03-10T05:18:53.810Z</reference></timeWindow><pickID>quakeml:nc.anss.org/Arrival/NC/95128949</pickID><waveformID networkCode="BG" stationCode="AL5" channelCode="DPZ" locationCode="--"></waveformID><magnitudeHint>MD</magnitudeHint><evaluationMode>automatic</evaluationMode><evaluationStatus>preliminary</evaluationStatus></amplitude><amplitude publicID="quakeml:nc.anss.org/Coda/NC/77539544"><genericAmplitude><value>344.8651</value></genericAmplitude><type>END</type><category>duration</category><unit>s</unit><timeWindow><begin>0.0</begin><end>2</end><reference>2014-03-10T05:18:54.360Z</reference></timeWindow><pickID>quakeml:nc.anss.org/Arrival/NC/95128999</pickID><waveformID networkCode="BG" stationCode="AL6" channelCode="DPZ" locationCode="--"></waveformID><magnitudeHint>MD</magnitudeHint><evaluationMode>automatic</evaluationMode><evaluationStatus>preliminary</evaluationStatus></amplitude><amplitude publicID="quakeml:nc.anss.org/Coda/NC/77539534"><genericAmplitude><value>520.0382</value></genericAmplitude><type>END</type><category>duration</category><unit>s</unit><timeWindow><begin>0.0</begin><end>2</end><reference>2014-03-10T05:18:54.550Z</reference></timeWindow><pickID>quakeml:nc.anss.org/Arrival/NC/95128989</pickID><waveformID networkCode="BG" stationCode="BRP" channelCode="DPZ" locationCode="--"></waveformID><magnitudeHint>MD</magnitudeHint><evaluationMode>automatic</evaluationMode><evaluationStatus>preliminary</evaluationStatus></amplitude><amplitude publicID="quakeml:nc.anss.org/Coda/NC/77539539"><genericAmplitude><value>192.1142</value></genericAmplitude><type>END</type><category>duration</category><unit>s</unit><timeWindow><begin>0.0</begin><end>2</end><reference>2014-03-10T05:18:54.570Z</reference></timeWindow><pickID>quakeml:nc.anss.org/Arrival/NC/95128994</pickID><waveformID networkCode="BG" stationCode="BUC" channelCode="DPZ" locationCode="--"></waveformID><magnitudeHint>MD</magnitudeHint><evaluationMode>automatic</evaluationMode><evaluationStatus>preliminary</evaluationStatus></amplitude><amplitude publicID="quakeml:nc.anss.org/Coda/NC/77539554"><genericAmplitude><value>201.0515</value></genericAmplitude><type>END</type><category>duration</category><unit>s</unit><timeWindow><begin>0.0</begin><end>2</end><reference>2014-03-10T05:18:55.520Z</reference></timeWindow><pickID>quakeml:nc.anss.org/Arrival/NC/95129009</pickID><waveformID networkCode="BG" stationCode="CLV" channelCode="DPZ" locationCode="--"></waveformID><magnitudeHint>MD</magnitudeHint><evaluationMode>automatic</evaluationMode><evaluationStatus>preliminary</evaluationStatus></amplitude><amplitude publicID="quakeml:nc.anss.org/Coda/NC/77539619"><genericAmplitude><value>416.38</value></genericAmplitude><type>END</type><category>duration</category><unit>s</unit><timeWindow><begin>0.0</begin><end>2</end><reference>2014-03-10T05:18:55.130Z</reference></timeWindow><pickID>quakeml:nc.anss.org/Arrival/NC/95129074</pickID><waveformID networkCode="BG" stationCode="DRK" channelCode="DPZ" locationCode="--"></waveformID><magnitudeHint>MD</magnitudeHint><evaluationMode>automatic</evaluationMode><evaluationStatus>preliminary</evaluationStatus></amplitude><amplitude publicID="quakeml:nc.anss.org/Coda/NC/77539629"><genericAmplitude><value>487.9207</value></genericAmplitude><type>END</type><category>duration</category><unit>s</unit><timeWindow><begin>0.0</begin><end>2</end><reference>2014-03-10T05:18:55.480Z</reference></timeWindow><pickID>quakeml:nc.anss.org/Arrival/NC/95129084</pickID><waveformID networkCode="BG" stationCode="FUM" channelCode="DPZ" locationCode="--"></waveformID><magnitudeHint>MD</magnitudeHint><evaluationMode>automatic</evaluationMode><evaluationStatus>preliminary</evaluationStatus></amplitude><amplitude publicID="quakeml:nc.anss.org/Coda/NC/77539474"><genericAmplitude><value>314.9924</value></genericAmplitude><type>END</type><category>duration</category><unit>s</unit><timeWindow><begin>0.0</begin><end>2</end><reference>2014-03-10T05:18:53.700Z</reference></timeWindow><pickID>quakeml:nc.anss.org/Arrival/NC/95128929</pickID><waveformID networkCode="BG" stationCode="HBW" channelCode="DPZ" locationCode="--"></waveformID><magnitudeHint>MD</magnitudeHint><evaluationMode>automatic</evaluationMode><evaluationStatus>preliminary</evaluationStatus></amplitude><amplitude publicID="quakeml:nc.anss.org/Coda/NC/77539464"><genericAmplitude><value>225.7366</value></genericAmplitude><type>END</type><category>duration</category><unit>s</unit><timeWindow><begin>0.0</begin><end>2</end><reference>2014-03-10T05:18:53.320Z</reference></timeWindow><pickID>quakeml:nc.anss.org/Arrival/NC/95128919</pickID><waveformID networkCode="BG" stationCode="HER" channelCode="DPZ" locationCode="--"></waveformID><magnitudeHint>MD</magnitudeHint><evaluationMode>automatic</evaluationMode><evaluationStatus>preliminary</evaluationStatus></amplitude><amplitude publicID="quakeml:nc.anss.org/Coda/NC/77539574"><genericAmplitude><value>511.7901</value></genericAmplitude><type>END</type><category>duration</category><unit>s</unit><timeWindow><begin>0.0</begin><end>2</end><reference>2014-03-10T05:18:55.380Z</reference></timeWindow><pickID>quakeml:nc.anss.org/Arrival/NC/95129029</pickID><waveformID networkCode="BG" stationCode="HVC" channelCode="DPZ" locationCode="--"></waveformID><magnitudeHint>MD</magnitudeHint><evaluationMode>automatic</evaluationMode><evaluationStatus>preliminary</evaluationStatus></amplitude><amplitude publicID="quakeml:nc.anss.org/Coda/NC/77539519"><genericAmplitude><value>212.6881</value></genericAmplitude><type>END</type><category>duration</category><unit>s</unit><timeWindow><begin>0.0</begin><end>2</end><reference>2014-03-10T05:18:54.780Z</reference></timeWindow><pickID>quakeml:nc.anss.org/Arrival/NC/95128974</pickID><waveformID networkCode="BG" stationCode="MCL" channelCode="DPZ" locationCode="--"></waveformID><magnitudeHint>MD</magnitudeHint><evaluationMode>automatic</evaluationMode><evaluationStatus>preliminary</evaluationStatus></amplitude><amplitude publicID="quakeml:nc.anss.org/Coda/NC/77539589"><genericAmplitude><value>170.8729</value></genericAmplitude><type>END</type><category>duration</category><unit>s</unit><timeWindow><begin>0.0</begin><end>2</end><reference>2014-03-10T05:18:55.560Z</reference></timeWindow><pickID>quakeml:nc.anss.org/Arrival/NC/95129044</pickID><waveformID networkCode="BG" stationCode="NEG" channelCode="DPZ" locationCode="--"></waveformID><magnitudeHint>MD</magnitudeHint><evaluationMode>automatic</evaluationMode><evaluationStatus>preliminary</evaluationStatus></amplitude><amplitude publicID="quakeml:nc.anss.org/Coda/NC/77539499"><genericAmplitude><value>407.6063</value></genericAmplitude><type>END</type><category>duration</category><unit>s</unit><timeWindow><begin>0.0</begin><end>2</end><reference>2014-03-10T05:18:54.530Z</reference></timeWindow><pickID>quakeml:nc.anss.org/Arrival/NC/95128954</pickID><waveformID networkCode="BG" stationCode="RGP" channelCode="DPZ" locationCode="--"></waveformID><magnitudeHint>MD</magnitudeHint><evaluationMode>automatic</evaluationMode><evaluationStatus>preliminary</evaluationStatus></amplitude><amplitude publicID="quakeml:nc.anss.org/Coda/NC/77539564"><genericAmplitude><value>405.7422</value></genericAmplitude><type>END</type><category>duration</category><unit>s</unit><timeWindow><begin>0.0</begin><end>2</end><reference>2014-03-10T05:18:55.380Z</reference></timeWindow><pickID>quakeml:nc.anss.org/Arrival/NC/95129019</pickID><waveformID networkCode="BG" stationCode="SB4" channelCode="DPZ" locationCode="--"></waveformID><magnitudeHint>MD</magnitudeHint><evaluationMode>automatic</evaluationMode><evaluationStatus>preliminary</evaluationStatus></amplitude><amplitude publicID="quakeml:nc.anss.org/Coda/NC/77539559"><genericAmplitude><value>166.7261</value></genericAmplitude><type>END</type><category>duration</category><unit>s</unit><timeWindow><begin>0.0</begin><end>2</end><reference>2014-03-10T05:18:54.870Z</reference></timeWindow><pickID>quakeml:nc.anss.org/Arrival/NC/95129014</pickID><waveformID networkCode="BG" stationCode="SQK" channelCode="DPZ" locationCode="--"></waveformID><magnitudeHint>MD</magnitudeHint><evaluationMode>automatic</evaluationMode><evaluationStatus>preliminary</evaluationStatus></amplitude><amplitude publicID="quakeml:nc.anss.org/Coda/NC/77539609"><genericAmplitude><value>184.827</value></genericAmplitude><type>END</type><category>duration</category><unit>s</unit><timeWindow><begin>0.0</begin><end>2</end><reference>2014-03-10T05:18:55.990Z</reference></timeWindow><pickID>quakeml:nc.anss.org/Arrival/NC/95129064</pickID><waveformID networkCode="BG" stationCode="STY" channelCode="DPZ" locationCode="--"></waveformID><magnitudeHint>MD</magnitudeHint><evaluationMode>automatic</evaluationMode><evaluationStatus>preliminary</evaluationStatus></amplitude><amplitude publicID="quakeml:nc.anss.org/Amp/NC/104745164"><genericAmplitude><value>0.0178353071212769</value></genericAmplitude><type>AL</type><category>point</category><unit>m</unit><waveformID networkCode="BK" stationCode="BDM" channelCode="HHE" locationCode="00"></waveformID><magnitudeHint>ML</magnitudeHint><evaluationMode>manual</evaluationMode><evaluationStatus>reviewed</evaluationStatus></amplitude><amplitude publicID="quakeml:nc.anss.org/Amp/NC/104745169"><genericAmplitude><value>0.0195626640319824</value></genericAmplitude><type>AL</type><category>point</category><unit>m</unit><waveformID networkCode="BK" stationCode="BDM" channelCode="HNN" locationCode="00"></waveformID><magnitudeHint>ML</magnitudeHint><evaluationMode>manual</evaluationMode><evaluationStatus>reviewed</evaluationStatus></amplitude><amplitude publicID="quakeml:nc.anss.org/Amp/NC/104744859"><genericAmplitude><value>0.031170060634613</value></genericAmplitude><type>AL</type><category>point</category><unit>m</unit><waveformID networkCode="BK" stationCode="BKS" channelCode="HHE" locationCode="00"></waveformID><magnitudeHint>ML</magnitudeHint><evaluationMode>manual</evaluationMode><evaluationStatus>reviewed</evaluationStatus></amplitude><amplitude publicID="quakeml:nc.anss.org/Amp/NC/104744854"><genericAmplitude><value>0.0304243350028992</value></genericAmplitude><type>AL</type><category>point</category><unit>m</unit><waveformID networkCode="BK" stationCode="BKS" channelCode="HHN" locationCode="00"></waveformID><magnitudeHint>ML</magnitudeHint><evaluationMode>manual</evaluationMode><evaluationStatus>reviewed</evaluationStatus></amplitude><amplitude publicID="quakeml:nc.anss.org/Amp/NC/104744819"><genericAmplitude><value>0.0438288831710815</value></genericAmplitude><type>AL</type><category>point</category><unit>m</unit><waveformID networkCode="BK" stationCode="BL67" channelCode="HHE" locationCode="00"></waveformID><magnitudeHint>ML</magnitudeHint><evaluationMode>manual</evaluationMode><evaluationStatus>reviewed</evaluationStatus></amplitude><amplitude publicID="quakeml:nc.anss.org/Amp/NC/104744814"><genericAmplitude><value>0.0360808157920837</value></genericAmplitude><type>AL</type><category>point</category><unit>m</unit><waveformID networkCode="BK" stationCode="BL67" channelCode="HHN" locationCode="00"></waveformID><magnitudeHint>ML</magnitudeHint><evaluationMode>manual</evaluationMode><evaluationStatus>reviewed</evaluationStatus></amplitude><amplitude publicID="quakeml:nc.anss.org/Amp/NC/104744779"><genericAmplitude><value>0.0432063436508179</value></genericAmplitude><type>AL</type><category>point</category><unit>m</unit><waveformID networkCode="BK" stationCode="BL88" channelCode="HNE" locationCode="00"></waveformID><magnitudeHint>ML</magnitudeHint><evaluationMode>manual</evaluationMode><evaluationStatus>reviewed</evaluationStatus></amplitude><amplitude publicID="quakeml:nc.anss.org/Amp/NC/104744774"><genericAmplitude><value>0.0286190056800842</value></genericAmplitude><type>AL</type><category>point</category><unit>m</unit><waveformID networkCode="BK" stationCode="BL88" channelCode="HNN" locationCode="00"></waveformID><magnitudeHint>ML</magnitudeHint><evaluationMode>manual</evaluationMode><evaluationStatus>reviewed</evaluationStatus></amplitude><amplitude publicID="quakeml:nc.anss.org/Amp/NC/104744909"><genericAmplitude><value>0.0208778285980225</value></genericAmplitude><type>AL</type><category>point</category><unit>m</unit><waveformID networkCode="BK" stationCode="BRIB" channelCode="HNE" locationCode="00"></waveformID><magnitudeHint>ML</magnitudeHint><evaluationMode>manual</evaluationMode><evaluationStatus>reviewed</evaluationStatus></amplitude><amplitude publicID="quakeml:nc.anss.org/Amp/NC/104744904"><genericAmplitude><value>0.0168642711639404</value></genericAmplitude><type>AL</type><category>point</category><unit>m</unit><waveformID networkCode="BK" stationCode="BRIB" channelCode="HNN" locationCode="00"></waveformID><magnitudeHint>ML</magnitudeHint><evaluationMode>manual</evaluationMode><evaluationStatus>reviewed</evaluationStatus></amplitude><amplitude publicID="quakeml:nc.anss.org/Amp/NC/104744769"><genericAmplitude><value>0.0197913253307343</value></genericAmplitude><type>AL</type><category>point</category><unit>m</unit><waveformID networkCode="BK" stationCode="BRK" channelCode="HHE" locationCode="00"></waveformID><magnitudeHint>ML</magnitudeHint><evaluationMode>manual</evaluationMode><evaluationStatus>reviewed</evaluationStatus></amplitude><amplitude publicID="quakeml:nc.anss.org/Amp/NC/104744764"><genericAmplitude><value>0.0220524907112122</value></genericAmplitude><type>AL</type><category>point</category><unit>m</unit><waveformID networkCode="BK" stationCode="BRK" channelCode="HHN" locationCode="00"></waveformID><magnitudeHint>ML</magnitudeHint><evaluationMode>manual</evaluationMode><evaluationStatus>reviewed</evaluationStatus></amplitude><amplitude publicID="quakeml:nc.anss.org/Amp/NC/104746279"><genericAmplitude><value>0.0080926251411438</value></genericAmplitude><type>AL</type><category>point</category><unit>m</unit><waveformID networkCode="BK" stationCode="CMB" channelCode="HHE" locationCode="00"></waveformID><magnitudeHint>ML</magnitudeHint><evaluationMode>manual</evaluationMode><evaluationStatus>reviewed</evaluationStatus></amplitude><amplitude publicID="quakeml:nc.anss.org/Amp/NC/104746274"><genericAmplitude><value>0.00554329335689545</value></genericAmplitude><type>AL</type><category>point</category><unit>m</unit><waveformID networkCode="BK" stationCode="CMB" channelCode="HHN" locationCode="00"></waveformID><magnitudeHint>ML</magnitudeHint><evaluationMode>manual</evaluationMode><evaluationStatus>reviewed</evaluationStatus></amplitude><amplitude publicID="quakeml:nc.anss.org/Amp/NC/104744349"><genericAmplitude><value>0.021585807800293</value></genericAmplitude><type>AL</type><category>point</category><unit>m</unit><waveformID networkCode="BK" stationCode="CVS" channelCode="HHE" locationCode="00"></waveformID><magnitudeHint>ML</magnitudeHint><evaluationMode>manual</evaluationMode><evaluationStatus>reviewed</evaluationStatus></amplitude><amplitude publicID="quakeml:nc.anss.org/Amp/NC/104744354"><genericAmplitude><value>0.0201815271377563</value></genericAmplitude><type>AL</type><category>point</category><unit>m</unit><waveformID networkCode="BK" stationCode="CVS" channelCode="HNN" locationCode="00"></waveformID><magnitudeHint>ML</magnitudeHint><evaluationMode>manual</evaluationMode><evaluationStatus>reviewed</evaluationStatus></amplitude><amplitude publicID="quakeml:nc.anss.org/Amp/NC/104744549"><genericAmplitude><value>0.0536221837997437</value></genericAmplitude><type>AL</type><category>point</category><unit>m</unit><waveformID networkCode="BK" stationCode="FARB" channelCode="HHE" locationCode="00"></waveformID><magnitudeHint>ML</magnitudeHint><evaluationMode>manual</evaluationMode><evaluationStatus>reviewed</evaluationStatus></amplitude><amplitude publicID="quakeml:nc.anss.org/Amp/NC/104744544"><genericAmplitude><value>0.0376697444915772</value></genericAmplitude><type>AL</type><category>point</category><unit>m</unit><waveformID networkCode="BK" stationCode="FARB" channelCode="HHN" locationCode="00"></waveformID><magnitudeHint>ML</magnitudeHint><evaluationMode>manual</evaluationMode><evaluationStatus>reviewed</evaluationStatus></amplitude><amplitude publicID="quakeml:nc.anss.org/Coda/NC/77539354"><genericAmplitude><value>728.5672</value></genericAmplitude><type>END</type><category>duration</category><unit>s</unit><timeWindow><begin>0.0</begin><end>2</end><reference>2014-03-10T05:18:47.900Z</reference></timeWindow><pickID>quakeml:nc.